[{"OBJECT_NAME":"VSP RF C1","OBJECT_ID":"2024-043AQ","EPOCH":"2026-03-09T21:56:05.358624","MEAN_MOTION":15.29409663,"ECCENTRICITY":0.00093965,"INCLINATION":97.5441,"RA_OF_ASC_NODE":205.1792,"ARG_OF_PERICENTER":219.6172,"MEAN_ANOMALY":140.4382,"EPHEMERIS_TYPE":0,"CLASSIFICATION_TYPE":"U","NORAD_CAT_ID":59136,"ELEMENT_SET_NO":999,"REV_AT_EPOCH":11190,"BSTAR":0.00026222052,"MEAN_MOTION_DOT":7.409e-5,"MEAN_MOTION_DDOT":0},{"OBJECT_NAME":"STARLINK-35241","OBJECT_ID":"2025-198Z","EPOCH":"2026-03-09T20:33:44.751744","MEAN_MOTION":15.30159665,"ECCENTRICITY":0.00011922,"INCLINATION":53.1556,"RA_OF_ASC_NODE":270.3628,"ARG_OF_PERICENTER":109.4815,"MEAN_ANOMALY":250.6314,"EPHEMERIS_TYPE":0,"CLASSIFICATION_TYPE":"U","NORAD_CAT_ID":65515,"ELEMENT_SET_NO":999,"REV_AT_EPOCH":2864,"BSTAR":0.00081708406,"MEAN_MOTION_DOT":0.00023888,"MEAN_MOTION_DDOT":0}]
